{"epoch":1784710044,"count":18256,"objects":[{"id":"60507","name":"TANAGER-1 4001","type":"PAYLOAD","l1":"1 60507U 24149AR  26202.50067219  .00000251  00000-0  73818-5 0  9990","l2":"2 60507  97.2310 296.5952 0002798 128.1626 231.9875 15.43898611108338"}]}